ONEWEB-0346             
1 49212U 21083AC  24063.74656766  .00000084  00000+0  18143-3 0  9995
2 49212  87.9219 141.7568 0002301 114.3277 245.8095 13.18686751119874
ONEWEB-0348             
1 49213U 21083AD  24063.51673663  .00000100  00000+0  21516-3 0  9993
2 49213  87.9126  80.7591 0001930 114.1632 245.9703 13.20771876126501
ONEWEB-0350             
1 49214U 21083AE  24063.68016387 -.00000256  00000+0 -73538-3 0  9991
2 49214  87.8962 126.5443 0001814 114.0250 246.1069 13.13470164121253
ONEWEB-0351             
1 49215U 21083AF  24063.58618009 -.00000006  00000+0 -47724-4 0  9992
2 49215  87.9120  80.7489 0001729  80.0230 280.1099 13.20772019126479
ONEWEB-0352             
1 49216U 21083AG  24063.73729892 -.00000255  00000+0 -73235-3 0  9994
2 49216  87.8966 126.5606 0001829  94.0875 266.0463 13.13468128121353
ONEWEB-0354             
1 49217U 21083AH  24063.53567689  .00000141  00000+0  31489-3 0  9994
2 49217  87.9123  80.7401 0001581  96.7427 263.3887 13.20771450126506
ONEWEB-0355             
1 49218U 21083AJ  24063.69128968  .00000345  00000+0  90911-3 0  9996
2 49218  87.8967 126.5692 0001795 101.2491 258.8840 13.13469185121226
ONEWEB-0357             
1 49219U 21083AK  24063.53251955  .00000071  00000+0  14265-3 0  9997
2 49219  87.9122  80.7628 0001873  93.9820 266.1527 13.20771030126504
